OBJECT_NAME,OBJECT_ID,EPOCH,MEAN_MOTION,ECCENTRICITY,INCLINATION,RA_OF_ASC_NODE,ARG_OF_PERICENTER,MEAN_ANOMALY,EPHEMERIS_TYPE,CLASSIFICATION_TYPE,NORAD_CAT_ID,ELEMENT_SET_NO,REV_AT_EPOCH,BSTAR,MEAN_MOTION_DOT,MEAN_MOTION_DDOT
INTELSAT 902 (IS-902),2001-039A,2026-07-04T03:23:02.141664,1.00271305,.00042888,6.1589,71.5754,29.8464,181.3792,0,U,26900,999,9086,0,-.274E-5,0
INTELSAT 904 (IS-904),2002-007A,2026-07-04T04:08:33.976608,1.00270910,.00061334,6.9595,68.9807,17.8107,226.0553,0,U,27380,999,5193,0,-.217E-5,0
DIRECTV 5 (TEMPO 1),2002-023A,2026-07-03T09:29:38.785920,1.00271698,.0003513,4.9166,75.1124,37.3501,201.2642,0,U,27426,999,8828,0,-.48E-6,0
INTELSAT 905 (IS-905),2002-027A,2026-07-04T18:22:10.242912,1.00272930,.00038993,6.7946,69.5884,37.7783,313.7493,0,U,27438,999,5153,0,.103E-5,0
GALAXY 3C (G-3C),2002-030A,2026-07-04T20:16:50.880576,1.00271630,.00018141,3.7755,77.7510,31.4025,23.0857,0,U,27445,999,4667,0,-.142E-5,0
INTELSAT 906 (IS-906),2002-041A,2026-07-04T21:35:45.459744,1.00271031,.00040423,5.8464,72.7032,12.9273,225.3442,0,U,27513,999,8720,0,.23E-6,0
GALAXY 13 (HORIZONS-1),2003-044A,2026-07-04T18:18:25.602048,1.00273255,.00017187,1.4638,83.6382,18.0176,305.6987,0,U,27954,999,4674,0,.145E-5,0
INTELSAT 10-02,2004-022A,2026-07-04T22:26:10.638240,1.00271274,.00004409,0.0398,258.9526,290.2142,69.3115,0,U,28358,999,8073,0,.2E-7,0
DIRECTV 8,2005-019A,2026-07-04T15:01:57.597312,1.00269914,.00032106,0.0203,40.4002,77.7700,270.9081,0,U,28659,999,7724,0,0,0
GALAXY 28 (G-28),2005-022A,2026-07-04T22:18:48.844800,1.00269863,.00024137,3.3414,78.7199,25.0359,126.7797,0,U,28702,999,5215,0,-.189E-5,0
GALAXY 16 (G-16),2006-023A,2026-07-04T21:58:22.007136,1.00271282,.00026346,0.0274,136.8364,327.6433,49.0325,0,U,29236,999,7315,0,-.114E-5,0
DIRECTV 9S,2006-043A,2026-07-04T20:14:58.559712,1.00271606,.00052806,2.4634,80.6983,26.1822,18.5170,0,U,29494,999,5156,0,-.102E-5,0
GALAXY 17 (G-17),2007-016B,2026-07-04T22:02:21.623712,1.00270177,.00038956,3.0137,79.6852,24.9493,63.8566,0,U,31307,999,6998,0,-.194E-5,0
INTELSAT 11 (IS-11),2007-044B,2026-07-04T22:40:08.292288,0.99048601,.00036535,3.6086,78.4607,92.4582,139.7274,0,U,32253,999,6862,0,.8E-6,0
HORIZONS-2,2007-063B,2026-07-04T22:05:28.824864,1.00273410,.00039673,2.6448,80.4187,10.9471,89.1267,0,U,32388,999,6799,0,-.242E-5,0
DIRECTV 11,2008-013A,2026-07-04T13:25:00.643872,1.00278328,.00005688,0.0443,220.8853,268.0357,255.7241,0,U,32729,999,4576,0,-.114E-5,0
GALAXY 18 (G-18),2008-024A,2026-07-04T21:51:30.165984,1.00272386,.00031006,0.0192,73.6583,38.4326,15.7023,0,U,32951,999,4603,0,.38E-6,0
GALAXY 19 (G-19),2008-045A,2026-07-04T21:58:51.959424,1.00271003,.0002901,0.0455,243.5824,238.9256,33.1204,0,U,33376,999,6508,0,-.126E-5,0
FM-5,2009-034A,2026-07-02T18:42:12.903264,1.00271535,.00009637,0.0343,275.0250,71.7322,128.4433,0,U,35493,999,4680,0,-.189E-5,0
INTELSAT 14 (IS-14),2009-064A,2026-07-04T22:13:41.836224,1.00272575,.00025183,0.0131,316.0468,147.6433,107.6742,0,U,36097,999,6078,0,-.261E-5,0
INTELSAT 15 (IS-15),2009-067A,2026-07-04T22:50:52.262592,1.00271884,.0002329,0.0072,349.2639,121.7460,239.8166,0,U,36106,999,4140,0,-.172E-5,0
DIRECTV 12,2009-075A,2026-07-02T15:12:13.817664,1.00269592,.00002931,0.0418,186.0830,277.3252,302.5946,0,U,36131,999,4670,0,-.92E-6,0
INTELSAT 16 (IS-16),2010-006A,2026-07-04T22:04:51.385152,1.00271564,.00024087,0.0096,35.4490,87.2321,55.2623,0,U,36397,999,5983,0,-.232E-5,0
XM-5,2010-053A,2026-07-02T20:29:51.095904,1.00271810,.00024153,0.0667,268.1133,288.6084,276.4302,0,U,37185,999,5764,0,-.12E-6,0
INTELSAT 17 (IS-17),2010-065B,2026-07-04T21:36:38.159424,1.00272127,.00025564,0.0046,41.6905,65.7530,205.6015,0,U,37238,999,5342,0,.11E-6,0
INTELSAT 28 (IS-28),2011-016A,2026-07-04T22:17:33.963648,1.00271257,.00038337,1.8491,82.4153,25.0419,118.1240,0,U,37392,999,5346,0,-.213E-5,0
INTELSAT 18 (IS-18),2011-056A,2026-07-04T21:35:15.384768,1.00271909,.00019659,0.0214,287.8621,183.8405,315.0086,0,U,37834,999,5398,0,.66E-6,0
INTELSAT 22 (IS-22),2012-011A,2026-07-04T22:47:07.621728,1.00271406,.00017111,0.0212,56.1947,44.5275,236.0982,0,U,38098,999,736,0,-.46E-6,0
INTELSAT 19 (IS-19),2012-030A,2026-07-04T19:48:31.096224,1.00271571,.00033193,0.0179,33.1672,81.0339,271.7575,0,U,38356,999,5062,0,-.44E-6,0
INTELSAT 20 (IS-20),2012-043A,2026-07-04T21:39:51.946848,1.00270899,.00012038,0.0095,48.1941,130.2172,137.9475,0,U,38740,999,5092,0,-.11E-6,0
INTELSAT 21 (IS-21),2012-045A,2026-07-04T20:27:19.875168,1.00271606,.00018446,0.0200,292.6447,187.1633,51.8903,0,U,38749,999,5070,0,-.272E-5,0
